BEIDOU-3S IGSO-1S       
1 40549U 15019A   26162.85493035 -.00000180  00000+0  00000+0 0  9990
2 40549  49.2064 295.5276 0038799 190.7165 173.6268  1.00251573 41024
NAVSTAR 74 (USA 262)    
1 40730U 15033A   26162.23787795 -.00000028  00000+0  00000+0 0  9990
2 40730  53.9871 267.3319 0115044  30.2134 330.4646  2.00556495 79871
BEIDOU-3S M2S           
1 40748U 15037A   26162.41688269 -.00000066  00000+0  00000+0 0  9991
2 40748  54.8770 302.2455 0008116 260.6370  99.2561  1.86232304 74010
BEIDOU-3S M1S           
1 40749U 15037B   26162.62499377 -.00000067  00000+0  00000+0 0  9996
2 40749  54.8727 302.2256 0003547  61.2572 298.7628  1.86254738 74020
GSAT0205 (GALILEO 9)    
1 40889U 15045A   26144.30399159 -.00000014  00000+0  00000+0 0  9994
2 40889  54.9357 222.4171 0006405 263.0112  96.9692  1.67409242 66562
GSAT0206 (GALILEO 10)   
1 40890U 15045B   26160.83170316  .00000048  00000+0  00000+0 0  9990
2 40890  54.9468 221.8077 0001682 339.7025  20.3746  1.70473928 66917
BEIDOU-3S IGSO-2S       
1 40938U 15053A   26162.95881612 -.00000146  00000+0  00000+0 0  9995
2 40938  49.2299 258.8465 0065598 191.9937 250.0772  1.00260751 39301
NAVSTAR 75 (USA 265)    
1 41019U 15062A   26160.29992778 -.00000064  00000+0  00000+0 0  9996
2 41019  56.9540  31.1152 0111654 231.1327 127.9172  2.00566961 77677
GSAT-15                 
1 41028U 15065A   26162.92976473 -.00000241  00000+0  00000+0 0  9992
2 41028   0.0837 266.0754 0004046 160.3027 262.1011  1.00270254 38744
GSAT0209 (GALILEO 12)   
1 41174U 15079A   26162.17289344  .00000012  00000+0  00000+0 0  9995
2 41174  55.8238 101.4269 0005395 341.0365  18.9073  1.70473704 64671
GSAT0208 (GALILEO 11)   
1 41175U 15079B   26160.63344479  .00000022  00000+0  00000+0 0  9997
2 41175  55.8212 101.4660 0004898 340.3551  19.5970  1.70473549 65069
IRNSS-1E                
1 41241U 16003A   26162.64514623 -.00000308  00000+0  00000+0 0  9990
2 41241  33.2228  59.8306 0017950 179.1772   4.8789  1.00267652 38029
NAVSTAR 76 (USA 266)    
1 41328U 16007A   26161.88615589 -.00000012  00000+0  00000+0 0  9990
2 41328  55.5202  89.7095 0096068 247.3778 111.5924  2.00551975 75711
COSMOS 2514 [GLONASS-M] 
1 41330U 16008A   26162.65404684 -.00000044  00000+0  00000+0 0  9997
2 41330  65.0252 313.1965 0011071 197.6277 162.3251  2.13102569 80502
BEIDOU-2 IGSO-6         
1 41434U 16021A   26162.98515472 -.00000157  00000+0  00000+0 0  9996
2 41434  60.2181  38.0924 0057076 231.5598  78.5171  1.00260204 37420
IRNSS-1G                
1 41469U 16027A   26162.84913056 -.00000320  00000+0  00000+0 0  9997
2 41469   5.1850  97.5962 0007524 353.7288 244.1103  1.00268750 37124
GSAT0211 (GALILEO 14)   
1 41549U 16030A   26158.99767407  .00000043  00000+0  00000+0 0  9999
2 41549  55.0982 221.9480 0002777 325.1627  34.9006  1.70473969 62511
GSAT0210 (GALILEO 13)   
1 41550U 16030B   26162.77446182  .00000057  00000+0  00000+0 0  9991
2 41550  55.0962 221.8419 0003686 237.6945 122.3623  1.70473848 62571
BEIDOU-2 G7             
1 41586U 16037A   26162.93016738 -.00000337  00000+0  00000+0 0  9997
2 41586   1.7056  69.2732 0006995   3.7827 272.5669  1.00266769  6831
EUTELSAT 117 WEST B     
1 41589U 16038B   26162.67124683  .00000005  00000+0  00000+0 0  9992
2 41589   0.0135 146.6761 0000181 266.2174 331.7735  1.00274010 36606
GSAT0207 (GALILEO 15)   
1 41859U 16069A   26162.46612815  .00000009  00000+0  00000+0 0  9996
2 41859  55.4954 101.2445 0005363 328.8179  31.1130  1.70473579 59302
GSAT0212 (GALILEO 16)   
1 41860U 16069B   26161.14639969  .00000018  00000+0  00000+0 0  9991
2 41860  55.4922 101.2762 0004678 355.7318   4.2331  1.70473868 59533
GSAT0213 (GALILEO 17)   
1 41861U 16069C   26162.10022564  .00000012  00000+0  00000+0 0  9990
2 41861  55.4950 101.2576 0005071 311.9600  47.9612  1.70474163 59416
GSAT0214 (GALILEO 18)   
1 41862U 16069D   26159.90009922  .00000024  00000+0  00000+0 0  9991
2 41862  55.4924 101.3112 0004328 318.2384  41.7019  1.70473875 59500
SES-15                  
1 42709U 17026A   26159.53201694  .00000076  00000+0  00000+0 0  9992
2 42709   0.0197 332.0701 0000516  88.0806 259.1449  1.00270105  7343
QZS-2 (MICHIBIKI-2)     
1 42738U 17028A   26160.53939596 -.00000147  00000+0  00000+0 0  9997
2 42738  39.4388 243.2674 0760581 269.1776  81.0235  1.00285994  7547
QZS-3 (MICHIBIKI-3)     
1 42917U 17048A   26162.93346073  .00000000  00000+0  00000+0 0  9993
2 42917   0.0258 186.9640 0002420 263.4602 272.8737  1.00265517 32205
COSMOS 2522 [GLONASS-M] 
1 42939U 17055A   26161.08408941  .00000114  00000+0  00000+0 0  9999
2 42939  64.0782 192.1263 0010679 240.0455 119.9210  2.13102025 67825
QZS-4 (MICHIBIKI-4)     
1 42965U 17062A   26162.36373251 -.00000318  00000+0  00000+0 0  9990
2 42965  40.1116 343.5575 0745200 271.6390 272.9173  1.00252284 31749
BEIDOU-3 M1             
1 43001U 17069A   26161.15259502 -.00000050  00000+0  00000+0 0  9990
2 43001  56.6854  63.3171 0010600 324.5878  35.3649  1.86231422 58472
BEIDOU-3 M2             
1 43002U 17069B   26162.16523728 -.00000053  00000+0  00000+0 0  9990
2 43002  56.6856  63.3198 0009248 349.7918  10.2118  1.86230927 58487
